GLOBALSTAR M023         
1 25621U 99004A   25327.09479448 -.00000054  00000+0  27677-3 0  9993
2 25621  52.0117 289.5610 0010305 115.9726 324.6106 12.62509878235803
GLOBALSTAR M040         
1 25622U 99004B   25327.13156772 -.00000057  00000+0  26233-3 0  9991
2 25622  51.9928 293.8380 0001304  30.6349  49.4301 12.62023651235323
GLOBALSTAR M036         
1 25623U 99004C   25326.92083652 -.00000018  00000+0  94644-3 0  9992
2 25623  51.9936 181.9281 0010839 359.9950 103.2247 11.86617764197827
GLOBALSTAR M038         
1 25624U 99004D   25326.95510529 -.00000072  00000+0  18821-3 0  9997
2 25624  51.9993 334.3349 0001973  28.6183   1.6619 12.32536198221956
GLOBALSTAR M022         
1 25649U 99012A   25327.11257487 -.00000028  00000+0  70415-3 0  9991
2 25649  52.0027 218.8678 0003244 111.0635  62.8316 12.02506883195493
GLOBALSTAR M041         
1 25650U 99012B   25326.66812541 -.00000099  00000+0 -17642-3 0  9992
2 25650  51.9999 106.3557 0000413 242.9106 117.1688 11.96680976197250
GLOBALSTAR M046         
1 25651U 99012C   25326.87049115  .00000035  00000+0  13674-2 0  9993
2 25651  52.0022 163.8673 0001657 174.8477 287.8817 12.09415964202863
GLOBALSTAR M037         
1 25652U 99012D   25326.61181227 -.00000055  00000+0  26971-3 0  9995
2 25652  52.0015  61.5894 0002452 164.3779 305.2524 12.62455788231283
